start=new Date('2022-01-01T00:00:00.000Z').valueOf();
sats=[{"EPHEMERIS_TYPE":"0","MEAN_MOTION_DDOT":"0.0000000000000","ECCENTRICITY":"0.00023590","RCS_SIZE":"LARGE","CLASSIFICATION_TYPE":"U","MEAN_MOTION":"15.06393641","FILE":"3255242","RA_OF_ASC_NODE":"201.1820","PERIAPSIS":"545.599","CENTER_NAME":"EARTH","ARG_OF_PERICENTER":"83.4847","REF_FRAME":"TEME","OBJECT_TYPE":"PAYLOAD","INCLINATION":"53.0534","SITE":"AFETR","MEAN_ANOMALY":"276.6411","REV_AT_EPOCH":"6902","PERIOD":"95.593","SEMIMAJOR_AXIS":"6925.368","GP_ID":"192818949","TLE_LINE1":"1 46542U 20070L   21365.55341776 -.00000836  00000-0 -37214-4 0  9995","BSTAR":"-0.00003721400000","TIME_SYSTEM":"UTC","EPOCH":"2021-12-31T13:16:55.294464","MEAN_MOTION_DOT":"-0.00000836","DECAY_DATE":null,"LAUNCH_DATE":"2020-10-06","TLE_LINE2":"2 46542  53.0534 201.1820 0002359  83.4847 276.6411 15.06393641 69022","MEAN_ELEMENT_THEORY":"SGP4","NORAD_CAT_ID":"46542","OBJECT_NAME":"STARLINK-1692","APOAPSIS":"548.867","ELEMENT_SET_NO":"999","COUNTRY_CODE":"US","OBJECT_ID":"2020-070L"},{"CLASSIFICATION_TYPE":"U","MEAN_MOTION_DDOT":"0.0000000000000","ECCENTRICITY":"0.00021330","RCS_SIZE":"LARGE","FILE":"3255242","MEAN_MOTION":"15.06402365","EPHEMERIS_TYPE":"0","OBJECT_TYPE":"PAYLOAD","REF_FRAME":"TEME","ARG_OF_PERICENTER":"79.5165","SITE":"AFETR","INCLINATION":"53.0524","PERIAPSIS":"545.729","RA_OF_ASC_NODE":"203.3236","CENTER_NAME":"EARTH","TIME_SYSTEM":"UTC","EPOCH":"2021-12-31T01:46:54.352416","MEAN_ANOMALY":"280.6064","REV_AT_EPOCH":"6895","SEMIMAJOR_AXIS":"6925.341","TLE_LINE1":"1 46543U 20070M   21365.07424019  .00002224  00000-0  16818-3 0  9992","GP_ID":"192819199","BSTAR":"0.00016818000000","PERIOD":"95.592","APOAPSIS":"548.683","OBJECT_NAME":"STARLINK-1693","COUNTRY_CODE":"US","OBJECT_ID":"2020-070M","ELEMENT_SET_NO":"999","TLE_LINE2":"2 46543  53.0524 203.3236 0002133  79.5165 280.6064 15.06402365 68950","MEAN_ELEMENT_THEORY":"SGP4","LAUNCH_DATE":"2020-10-06","DECAY_DATE":null,"MEAN_MOTION_DOT":"0.00002224","NORAD_CAT_ID":"46543"},{"REV_AT_EPOCH":"6916","MEAN_ANOMALY":"279.0792","TLE_LINE1":"1 46544U 20070N   21365.00376303  .00002192  00000-0  16604-3 0  9995","BSTAR":"0.00016604000000","GP_ID":"192819450","SEMIMAJOR_AXIS":"6925.339","PERIOD":"95.592","TIME_SYSTEM":"UTC","EPOCH":"2021-12-31T00:05:25.125792","MEAN_ELEMENT_THEORY":"SGP4","TLE_LINE2":"2 46544  53.0530 188.6461 0002119  81.0437 279.0792 15.06403150 69164","DECAY_DATE":null,"MEAN_MOTION_DOT":"0.00002192","LAUNCH_DATE":"2020-10-06","NORAD_CAT_ID":"46544","OBJECT_NAME":"STARLINK-1694","APOAPSIS":"548.671","OBJECT_ID":"2020-070N","COUNTRY_CODE":"US","ELEMENT_SET_NO":"999","EPHEMERIS_TYPE":"0","CLASSIFICATION_TYPE":"U","RCS_SIZE":"LARGE","ECCENTRICITY":"0.00021190","MEAN_MOTION_DDOT":"0.0000000000000","FILE":"3255242","MEAN_MOTION":"15.06403150","PERIAPSIS":"545.736","RA_OF_ASC_NODE":"188.6461","CENTER_NAME":"EARTH","OBJECT_TYPE":"PAYLOAD","ARG_OF_PERICENTER":"81.0437","REF_FRAME":"TEME","SITE":"AFETR","INCLINATION":"53.0530"},{"OBJECT_NAME":"STARLINK-1696","APOAPSIS":"548.758","ELEMENT_SET_NO":"999","COUNTRY_CODE":"US","OBJECT_ID":"2020-070P","DECAY_DATE":null,"MEAN_MOTION_DOT":"-0.00000815","LAUNCH_DATE":"2020-10-06","TLE_LINE2":"2 46545  53.0542 201.0889 0002223  81.3787 278.7454 15.06398375 69027","MEAN_ELEMENT_THEORY":"SGP4","NORAD_CAT_ID":"46545","TIME_SYSTEM":"UTC","EPOCH":"2021-12-31T13:48:46.282752","MEAN_ANOMALY":"278.7454","REV_AT_EPOCH":"6902","PERIOD":"95.592","SEMIMAJOR_AXIS":"6925.354","BSTAR":"-0.00003577400000","TLE_LINE1":"1 46545U 20070P   21365.57553568 -.00000815  00000-0 -35774-4 0  9990","GP_ID":"192819688","REF_FRAME":"TEME","ARG_OF_PERICENTER":"81.3787","OBJECT_TYPE":"PAYLOAD","INCLINATION":"53.0542","SITE":"AFETR","RA_OF_ASC_NODE":"201.0889","PERIAPSIS":"545.679","CENTER_NAME":"EARTH","MEAN_MOTION_DDOT":"0.0000000000000","ECCENTRICITY":"0.00022230","RCS_SIZE":"LARGE","CLASSIFICATION_TYPE":"U","MEAN_MOTION":"15.06398375","FILE":"3255242","EPHEMERIS_TYPE":"0"},{"TIME_SYSTEM":"UTC","EPOCH":"2021-12-31T13:27:31.640832","REV_AT_EPOCH":"6902","MEAN_ANOMALY":"284.8180","PERIOD":"95.592","TLE_LINE1":"1 46546U 20070Q   21365.56078288  .00000748  00000-0  69161-4 0  9991","GP_ID":"192818449","BSTAR":"0.00006916100000","SEMIMAJOR_AXIS":"6925.354","OBJECT_NAME":"STARLINK-1697","APOAPSIS":"548.723","ELEMENT_SET_NO":"999","OBJECT_ID":"2020-070Q","COUNTRY_CODE":"US","DECAY_DATE":null,"LAUNCH_DATE":"2020-10-06","MEAN_MOTION_DOT":"0.00000748","TLE_LINE2":"2 46546  53.0535 201.1403 0002171  75.3049 284.8180 15.06398190 69028","MEAN_ELEMENT_THEORY":"SGP4","NORAD_CAT_ID":"46546","RCS_SIZE":"LARGE","ECCENTRICITY":"0.00021710","MEAN_MOTION_DDOT":"0.0000000000000","CLASSIFICATION_TYPE":"U","MEAN_MOTION":"15.06398190","FILE":"3255242","EPHEMERIS_TYPE":"0","REF_FRAME":"TEME","ARG_OF_PERICENTER":"75.3049","OBJECT_TYPE":"PAYLOAD","INCLINATION":"53.0535","SITE":"AFETR","RA_OF_ASC_NODE":"201.1403","PERIAPSIS":"545.716","CENTER_NAME":"EARTH"},{"EPHEMERIS_TYPE":"0","CLASSIFICATION_TYPE":"U","MEAN_MOTION_DDOT":"0.0000000000000","ECCENTRICITY":"0.00021120","RCS_SIZE":"LARGE","FILE":"3255242","MEAN_MOTION":"15.06393567","PERIAPSIS":"545.771","RA_OF_ASC_NODE":"201.0136","CENTER_NAME":"EARTH","OBJECT_TYPE":"PAYLOAD","ARG_OF_PERICENTER":"90.1382","REF_FRAME":"TEME","SITE":"AFETR","INCLINATION":"53.0541","MEAN_ANOMALY":"269.9849","REV_AT_EPOCH":"6903","SEMIMAJOR_AXIS":"6925.368","TLE_LINE1":"1 46547U 20070R   21365.59028383 -.00002559  00000-0 -15294-3 0  9997","GP_ID":"192818699","BSTAR":"-0.00015294000000","PERIOD":"95.593","TIME_SYSTEM":"UTC","EPOCH":"2021-12-31T14:10:00.522912","TLE_LINE2":"2 46547  53.0541 201.0136 0002112  90.1382 269.9849 15.06393567 69038","MEAN_ELEMENT_THEORY":"SGP4","LAUNCH_DATE":"2020-10-06","DECAY_DATE":null,"MEAN_MOTION_DOT":"-0.00002559","NORAD_CAT_ID":"46547","OBJECT_NAME":"STARLINK-1698","APOAPSIS":"548.696","COUNTRY_CODE":"US","OBJECT_ID":"2020-070R","ELEMENT_SET_NO":"999"},{"OBJECT_NAME":"STARLINK-1699","APOAPSIS":"549.104","ELEMENT_SET_NO":"999","COUNTRY_CODE":"US","OBJECT_ID":"2020-070S","MEAN_MOTION_DOT":"0.00001723","DECAY_DATE":null,"LAUNCH_DATE":"2020-10-06","MEAN_ELEMENT_THEORY":"SGP4","TLE_LINE2":"2 46548  53.0528 202.1647 0002714  77.0708 283.0584 15.06396556 68995","NORAD_CAT_ID":"46548","TIME_SYSTEM":"UTC","EPOCH":"2021-12-31T08:03:45.672192","MEAN_ANOMALY":"283.0584","REV_AT_EPOCH":"6899","PERIOD":"95.592","SEMIMAJOR_AXIS":"6925.359","TLE_LINE1":"1 46548U 20070S   21365.33594528  .00001723  00000-0  13458-3 0  9999","BSTAR":"0.00013458000000","GP_ID":"192819951","ARG_OF_PERICENTER":"77.0708","REF_FRAME":"TEME","OBJECT_TYPE":"PAYLOAD","INCLINATION":"53.0528","SITE":"AFETR","PERIAPSIS":"545.345","RA_OF_ASC_NODE":"202.1647","CENTER_NAME":"EARTH","ECCENTRICITY":"0.00027140","MEAN_MOTION_DDOT":"0.0000000000000","RCS_SIZE":"LARGE","CLASSIFICATION_TYPE":"U","MEAN_MOTION":"15.06396556","FILE":"3255242","EPHEMERIS_TYPE":"0"},{"DECAY_DATE":null,"LAUNCH_DATE":"2020-10-06","MEAN_MOTION_DOT":"0.00001099","MEAN_ELEMENT_THEORY":"SGP4","TLE_LINE2":"2 46549  53.0524 201.1302 0002369  80.0332 280.0924 15.06395851 69029","NORAD_CAT_ID":"46549","APOAPSIS":"548.867","OBJECT_NAME":"STARLINK-1700","ELEMENT_SET_NO":"999","COUNTRY_CODE":"US","OBJECT_ID":"2020-070T","MEAN_ANOMALY":"280.0924","REV_AT_EPOCH":"6902","PERIOD":"95.592","SEMIMAJOR_AXIS":"6925.361","BSTAR":"0.00009267900000","TLE_LINE1":"1 46549U 20070T   21365.56447126  .00001099  00000-0  92679-4 0  9995","GP_ID":"192820189","TIME_SYSTEM":"UTC","EPOCH":"2021-12-31T13:32:50.316864","PERIAPSIS":"545.586","RA_OF_ASC_NODE":"201.1302","CENTER_NAME":"EARTH","ARG_OF_PERICENTER":"80.0332","REF_FRAME":"TEME","OBJECT_TYPE":"PAYLOAD","INCLINATION":"53.0524","SITE":"AFETR","EPHEMERIS_TYPE":"0","ECCENTRICITY":"0.00023690","MEAN_MOTION_DDOT":"0.0000000000000","RCS_SIZE":"LARGE","CLASSIFICATION_TYPE":"U","MEAN_MOTION":"15.06395851","FILE":"3255242"},{"CENTER_NAME":"EARTH","PERIAPSIS":"545.804","RA_OF_ASC_NODE":"201.1968","INCLINATION":"53.0536","SITE":"AFETR","REF_FRAME":"TEME","ARG_OF_PERICENTER":"75.5810","OBJECT_TYPE":"PAYLOAD","EPHEMERIS_TYPE":"0","MEAN_MOTION":"15.06399769","FILE":"3255242","RCS_SIZE":"LARGE","MEAN_MOTION_DDOT":"0.0000000000000","ECCENTRICITY":"0.00020370","CLASSIFICATION_TYPE":"U","NORAD_CAT_ID":"46550","DECAY_DATE":null,"LAUNCH_DATE":"2020-10-06","MEAN_MOTION_DOT":"-0.00000031","MEAN_ELEMENT_THEORY":"SGP4","TLE_LINE2":"2 46550  53.0536 201.1968 0002037  75.5810 284.5405 15.06399769 69029","ELEMENT_SET_NO":"999","OBJECT_ID":"2020-070U","COUNTRY_CODE":"US","APOAPSIS":"548.625","OBJECT_NAME":"STARLINK-1701","PERIOD":"95.592","GP_ID":"192818950","TLE_LINE1":"1 46550U 20070U   21365.54972500 -.00000031  00000-0  16848-4 0  9994","BSTAR":"0.00001684800000","SEMIMAJOR_AXIS":"6925.349","REV_AT_EPOCH":"6902","MEAN_ANOMALY":"284.5405","EPOCH":"2021-12-31T13:11:36.240000","TIME_SYSTEM":"UTC"},{"BSTAR":"0.00005102800000","TLE_LINE1":"1 46552U 20070W   21365.57508615  .00000478  00000-0  51028-4 0  9994","GP_ID":"192819200","SEMIMAJOR_AXIS":"6925.397","PERIOD":"95.593","REV_AT_EPOCH":"6924","MEAN_ANOMALY":"277.5846","EPOCH":"2021-12-31T13:48:07.443360","TIME_SYSTEM":"UTC","NORAD_CAT_ID":"46552","TLE_LINE2":"2 46552  53.0529 186.0780 0002277  82.5401 277.5846 15.06384209 69244","MEAN_ELEMENT_THEORY":"SGP4","DECAY_DATE":null,"LAUNCH_DATE":"2020-10-06","MEAN_MOTION_DOT":"0.00000478","OBJECT_ID":"2020-070W","COUNTRY_CODE":"US","ELEMENT_SET_NO":"999","APOAPSIS":"548.839","OBJECT_NAME":"STARLINK-1649","EPHEMERIS_TYPE":"0","FILE":"3255242","MEAN_MOTION":"15.06384209","CLASSIFICATION_TYPE":"U","RCS_SIZE":"LARGE","ECCENTRICITY":"0.00022770","MEAN_MOTION_DDOT":"0.0000000000000","CENTER_NAME":"EARTH","RA_OF_ASC_NODE":"186.0780","PERIAPSIS":"545.685","SITE":"AFETR","INCLINATION":"53.0529","OBJECT_TYPE":"PAYLOAD","ARG_OF_PERICENTER":"82.5401","REF_FRAME":"TEME"}];
